[{"OBJECT_NAME":"STARLINK-31822","OBJECT_ID":"2024-090Y","EPOCH":"2026-03-09T15:18:43.473024","MEAN_MOTION":15.27570605,"ECCENTRICITY":0.00012301,"INCLINATION":43.0026,"RA_OF_ASC_NODE":183.6643,"ARG_OF_PERICENTER":250.1651,"MEAN_ANOMALY":109.9068,"EPHEMERIS_TYPE":0,"CLASSIFICATION_TYPE":"U","NORAD_CAT_ID":59752,"ELEMENT_SET_NO":999,"REV_AT_EPOCH":10342,"BSTAR":3.953187e-6,"MEAN_MOTION_DOT":-1.53e-6,"MEAN_MOTION_DDOT":0},{"OBJECT_NAME":"ELECTRON KICK STAGE R\/B","OBJECT_ID":"2024-047B","EPOCH":"2026-03-09T21:11:54.433824","MEAN_MOTION":15.27307897,"ECCENTRICITY":0.00092426,"INCLINATION":97.6338,"RA_OF_ASC_NODE":46.9382,"ARG_OF_PERICENTER":20.6031,"MEAN_ANOMALY":339.5579,"EPHEMERIS_TYPE":0,"CLASSIFICATION_TYPE":"U","NORAD_CAT_ID":59225,"ELEMENT_SET_NO":999,"REV_AT_EPOCH":10999,"BSTAR":0.00091229405,"MEAN_MOTION_DOT":0.00024409,"MEAN_MOTION_DDOT":0}]
